ORBCOMM FM06            
1 25118U 97084G   26157.60390905  .00001473  00000+0  43588-3 0  9993
2 25118  45.0133 103.6590 0002007 298.9421 230.5330 14.47536333492856
ORBCOMM FM04            
1 25159U 98007C   26158.22201256  .00001080  00000+0  41520-3 0  9991
2 25159 107.9627 148.9100 0041041 341.9320  18.0360 14.35723329475161
ORBCOMM FM19            
1 25415U 98046C   26158.10863809  .00000930  00000+0  34111-3 0  9995
2 25415  44.9944 291.4676 0004254 241.3041 288.4023 14.39479917455328
ORBCOMM FM20            
1 25416U 98046D   26158.07864949  .00000707  00000+0  27803-3 0  9990
2 25416  44.9949 299.4212 0001612 215.8377 144.2363 14.38052845455334
ORBCOMM FM27            
1 25481U 98053G   26158.33004398  .00001086  00000+0  39334-3 0  9996
2 25481  45.0065  22.1708 0000206  70.4841 289.6030 14.39123385448816
ORBCOMM FM32            
1 25982U 99065C   26157.44591547  .00000624  00000+0  25555-3 0  9991
2 25982  45.0145 224.0828 0005217 341.0890  18.9763 14.37118027385546
ORBCOMM FM109           
1 40086U 14040A   26158.23606477  .00000548  00000+0  15218-3 0  9990
2 40086  47.0017 138.5343 0001599 218.0936 141.9837 14.58834189632891
ORBCOMM FM114           
1 41179U 15081A   26158.39034560  .00000579  00000+0  15870-3 0  9993
2 41179  47.0058  48.3219 0001912 164.9943 195.1000 14.58847401556323
ORBCOMM FM110           
1 41182U 15081D   26158.37887222  .00000842  00000+0  21433-3 0  9991
2 41182  47.0029  47.8183 0002922  20.9160 339.1845 14.58864970556195
ORBCOMM FM118           
1 41183U 15081E   26156.97489096  .00003194  00000+0  71149-3 0  9995
2 41183  47.0105  54.7867 0003166 344.4390  15.6398 14.58872006556094
ORBCOMM FM112           
1 41184U 15081F   26158.14391772  .00000684  00000+0  18077-3 0  9992
2 41184  47.0001 317.7383 0003078 173.0297 187.0632 14.58889255557482
ORBCOMM FM113           
1 41185U 15081G   26157.70931320  .00000567  00000+0  15623-3 0  9997
2 41185  47.0018 320.1644 0001652 181.5263 178.5618 14.58847509557409
ORBCOMM FM108           
1 41187U 15081J   26156.50751746  .00000700  00000+0  18440-3 0  9997
2 41187  47.0046 237.4186 0002310 171.2053 188.8874 14.58857926558377
ORBCOMM FM117           
1 41188U 15081K   26158.45912388  .00000625  00000+0  16854-3 0  9998
2 41188  47.0005 226.8283 0002951 182.2940 177.7932 14.58857481558706
ORBCOMM FM116           
1 41189U 15081L   26158.16572054  .00000835  00000+0  21284-3 0  9995
2 41189  47.0034 318.0050 0001126   0.2552 359.8334 14.58868481557470
